ONEWEB-0258             
1 48976U 21060K   24247.81038132 -.00000027  00000+0 -10366-3 0  9997
2 48976  87.9172 358.5030 0001873 101.5302 258.6039 13.16597824153889
ONEWEB-0259             
1 48977U 21060L   24247.88006013  .00000002  00000+0 -28434-4 0  9996
2 48977  87.9171 358.4739 0001957 107.7541 252.3804 13.16595259153926
ONEWEB-0260             
1 48978U 21060M   24247.87135918 -.00000056  00000+0 -18001-3 0  9991
2 48978  87.9174 358.5046 0001275  90.5162 269.6115 13.16592460153908
ONEWEB-0261             
1 48979U 21060N   24247.84048131  .00000111  00000+0  25688-3 0  9998
2 48979  87.9177 358.5065 0001490 119.1552 240.9729 13.16596058153958
ONEWEB-0262             
1 48980U 21060P   24247.82148210  .00000038  00000+0  65456-4 0  9993
2 48980  87.9173 358.4722 0002048 113.0261 247.1086 13.16595924153917
ONEWEB-0263             
1 48981U 21060Q   24247.85314129  .00000021  00000+0  21845-4 0  9997
2 48981  87.9177 358.4849 0001739 116.7654 243.3655 13.16597011153889
ONEWEB-0264             
1 48982U 21060R   24247.81434740  .00000007  00000+0 -14157-4 0  9999
2 48982  87.9174 358.5031 0001761 102.1871 257.9457 13.16596966153885
ONEWEB-0266             
1 48984U 21060T   24247.83573233  .00000019  00000+0  15858-4 0  9995
2 48984  87.9172 358.4746 0001903  99.8960 260.2386 13.16596405153871
